{"type": "FeatureCollection", "features": [ {"type": "Feature", "properties": {"norad_id": 66919, "name": "HULIANWANG DIGUI 14E", "group": "last-30-days", "lat": -11.651340742355316, "lon": -42.89967368856683, "alt_km": 875.8180252161319, "timestamp": "2025-12-10T07:43:53.550679+00:00", "meta": {"OBJECT_NAME": "HULIANWANG DIGUI 14E", "OBJECT_ID": "2025-285E", "EPOCH": "2025-12-09T20:34:08.186016", "MEAN_MOTION": 14.05714456, "ECCENTRICITY": 0.0007869, "INCLINATION": 50.0055, "RA_OF_ASC_NODE": 129.033, "ARG_OF_PERICENTER": 281.9809, "MEAN_ANOMALY": 78.0214, "EPHEMERIS_TYPE": 0, "CLASSIFICATION_TYPE": "U", "NORAD_CAT_ID": 66919, "ELEMENT_SET_NO": 999, "REV_AT_EPOCH": 50, "BSTAR": -5.9173e-06, "MEAN_MOTION_DOT": -1.62e-06, "MEAN_MOTION_DDOT": 0}, "tle": {"line1": "1 66919U 25285E   25343.85703919 -.00000162  00000+0 -59173-5 0  9992", "line2": "2 66919  50.0055 129.0330 0007869 281.9809  78.0214 14.05714456   507"}}, "geometry": {"type": "Point", "coordinates": [-42.89967368856683, -11.651340742355316]}}, {"type": "Feature", "properties": {"norad_id": 66920, "name": "HULIANWANG DIGUI 14F", "group": "last-30-days", "lat": -20.11467261824874, "lon": -35.079845606215116, "alt_km": 844.5505991618375, "timestamp": "2025-12-10T07:43:53.550691+00:00", "meta": {"OBJECT_NAME": "HULIANWANG DIGUI 14F", "OBJECT_ID": "2025-285F", "EPOCH": "2025-12-09T20:33:41.276736", "MEAN_MOTION": 14.11847534, "ECCENTRICITY": 0.0030597, "INCLINATION": 50.004, "RA_OF_ASC_NODE": 128.9355, "ARG_OF_PERICENTER": 264.6131, "MEAN_ANOMALY": 95.1286, "EPHEMERIS_TYPE": 0, "CLASSIFICATION_TYPE": "U", "NORAD_CAT_ID": 66920, "ELEMENT_SET_NO": 999, "REV_AT_EPOCH": 50, "BSTAR": 0.00026469, "MEAN_MOTION_DOT": 3.34e-06, "MEAN_MOTION_DDOT": 0}, "tle": {"line1": "1 66920U 25285F   25343.85672774  .00000334  00000+0  26469-3 0  9997", "line2": "2 66920  50.0040 128.9355 0030597 264.6131  95.1286 14.11847534   508"}}, "geometry": {"type": "Point", "coordinates": [-35.079845606215116, -20.11467261824874]}}, {"type": "Feature", "properties": {"norad_id": 66921, "name": "HULIANWANG DIGUI 14G", "group": "last-30-days", "lat": -13.426466670630738, "lon": -41.308732159328, "alt_km": 875.5231225952039, "timestamp": "2025-12-10T07:43:53.550701+00:00", "meta": {"OBJECT_NAME": "HULIANWANG DIGUI 14G", "OBJECT_ID": "2025-285G", "EPOCH": "2025-12-09T20:33:33.123168", "MEAN_MOTION": 14.05882767, "ECCENTRICITY": 0.0006953, "INCLINATION": 50.0104, "RA_OF_ASC_NODE": 129.0359, "ARG_OF_PERICENTER": 285.2147, "MEAN_ANOMALY": 74.7989, "EPHEMERIS_TYPE": 0, "CLASSIFICATION_TYPE": "U", "NORAD_CAT_ID": 66921, "ELEMENT_SET_NO": 999, "REV_AT_EPOCH": 50, "BSTAR": 2.5625e-05, "MEAN_MOTION_DOT": -1.1e-06, "MEAN_MOTION_DDOT": 0}, "tle": {"line1": "1 66921U 25285G   25343.85663337 -.00000110  00000+0  25625-4 0  9990", "line2": "2 66921  50.0104 129.0359 0006953 285.2147  74.7989 14.05882767   504"}}, "geometry": {"type": "Point", "coordinates": [-41.308732159328, -13.426466670630738]}}, {"type": "Feature", "properties": {"norad_id": 66922, "name": "HULIANWANG DIGUI 14H", "group": "last-30-days", "lat": -14.637331731989923, "lon": -40.209696867884475, "alt_km": 875.6793896575282, "timestamp": "2025-12-10T07:43:53.550711+00:00", "meta": {"OBJECT_NAME": "HULIANWANG DIGUI 14H", "OBJECT_ID": "2025-285H", "EPOCH": "2025-12-09T20:33:08.880192", "MEAN_MOTION": 14.05998064, "ECCENTRICITY": 0.0006946, "INCLINATION": 50.0077, "RA_OF_ASC_NODE": 129.0309, "ARG_OF_PERICENTER": 291.7211, "MEAN_ANOMALY": 68.2955, "EPHEMERIS_TYPE": 0, "CLASSIFICATION_TYPE": "U", "NORAD_CAT_ID": 66922, "ELEMENT_SET_NO": 999, "REV_AT_EPOCH": 50, "BSTAR": -4.4836e-06, "MEAN_MOTION_DOT": -1.6e-06, "MEAN_MOTION_DDOT": 0}, "tle": {"line1": "1 66922U 25285H   25343.85635278 -.00000160  00000+0 -44836-5 0  9996", "line2": "2 66922  50.0077 129.0309 0006946 291.7211  68.2955 14.05998064   504"}}, "geometry": {"type": "Point", "coordinates": [-40.209696867884475, -14.637331731989923]}}, {"type": "Feature", "properties": {"norad_id": 66923, "name": "HULIANWANG DIGUI 14J", "group": "last-30-days", "lat": -15.29273236528191, "lon": -39.605512497595086, "alt_km": 875.0592519460479, "timestamp": "2025-12-10T07:43:53.550726+00:00", "meta": {"OBJECT_NAME": "HULIANWANG DIGUI 14J", "OBJECT_ID": "2025-285J", "EPOCH": "2025-12-09T20:32:56.085216", "MEAN_MOTION": 14.06054934, "ECCENTRICITY": 0.0005381, "INCLINATION": 50.0075, "RA_OF_ASC_NODE": 129.0309, "ARG_OF_PERICENTER": 286.5965, "MEAN_ANOMALY": 73.4349, "EPHEMERIS_TYPE": 0, "CLASSIFICATION_TYPE": "U", "NORAD_CAT_ID": 66923, "ELEMENT_SET_NO": 999, "REV_AT_EPOCH": 50, "BSTAR": 0.00024345, "MEAN_MOTION_DOT": 2.5e-06, "MEAN_MOTION_DDOT": 0}, "tle": {"line1": "1 66923U 25285J   25343.85620469  .00000250  00000+0  24345-3 0  9992", "line2": "2 66923  50.0075 129.0309 0005381 286.5965  73.4349 14.06054934   508"}}, "geometry": {"type": "Point", "coordinates": [-39.605512497595086, -15.29273236528191]}}, {"type": "Feature", "properties": {"norad_id": 66924, "name": "CZ-8A R/B", "group": "last-30-days", "lat": -6.6001938312881645, "lon": -47.980899717702044, "alt_km": 790.8717644112076, "timestamp": "2025-12-10T07:43:53.550736+00:00", "meta": {"OBJECT_NAME": "CZ-8A R/B", "OBJECT_ID": "2025-285K", "EPOCH": "2025-12-09T19:07:49.783008", "MEAN_MOTION": 14.3050021, "ECCENTRICITY": 0.0119321, "INCLINATION": 50.0059, "RA_OF_ASC_NODE": 128.6808, "ARG_OF_PERICENTER": 96.3661, "MEAN_ANOMALY": 265.0859, "EPHEMERIS_TYPE": 0, "CLASSIFICATION_TYPE": "U", "NORAD_CAT_ID": 66924, "ELEMENT_SET_NO": 999, "REV_AT_EPOCH": 50, "BSTAR": 0.00010749, "MEAN_MOTION_DOT": 1.37e-06, "MEAN_MOTION_DDOT": 0}, "tle": {"line1": "1 66924U 25285K   25343.79710397  .00000137  00000+0  10749-3 0  9993", "line2": "2 66924  50.0059 128.6808 0119321  96.3661 265.0859 14.30500210   505"}}, "geometry": {"type": "Point", "coordinates": [-47.980899717702044, -6.6001938312881645]}}]}